[{"OBJECT_NAME":"FENGYUN 1C DEB","OBJECT_ID":"1999-025RM","EPOCH":"2026-03-14T22:01:07.527936","MEAN_MOTION":14.17330791,"ECCENTRICITY":0.01977223,"INCLINATION":98.6713,"RA_OF_ASC_NODE":62.5165,"ARG_OF_PERICENTER":116.846,"MEAN_ANOMALY":305.5885,"EPHEMERIS_TYPE":0,"CLASSIFICATION_TYPE":"U","NORAD_CAT_ID":30108,"ELEMENT_SET_NO":999,"REV_AT_EPOCH":98904,"BSTAR":0.00022696402,"MEAN_MOTION_DOT":5.13e-6,"MEAN_MOTION_DDOT":0},{"OBJECT_NAME":"FENGYUN 1C DEB","OBJECT_ID":"1999-025RN","EPOCH":"2026-03-14T22:34:19.721856","MEAN_MOTION":14.1774461,"ECCENTRICITY":0.01671635,"INCLINATION":98.5162,"RA_OF_ASC_NODE":68.6439,"ARG_OF_PERICENTER":326.6944,"MEAN_ANOMALY":85.3155,"EPHEMERIS_TYPE":0,"CLASSIFICATION_TYPE":"U","NORAD_CAT_ID":30109,"ELEMENT_SET_NO":999,"REV_AT_EPOCH":98858,"BSTAR":0.00051686859,"MEAN_MOTION_DOT":1.166e-5,"MEAN_MOTION_DDOT":0},{"OBJECT_NAME":"FENGYUN 1C DEB","OBJECT_ID":"1999-025RP","EPOCH":"2026-03-14T19:47:48.426720","MEAN_MOTION":13.56285143,"ECCENTRICITY":0.02690227,"INCLINATION":98.9052,"RA_OF_ASC_NODE":178.9384,"ARG_OF_PERICENTER":115.7384,"MEAN_ANOMALY":247.1788,"EPHEMERIS_TYPE":0,"CLASSIFICATION_TYPE":"U","NORAD_CAT_ID":30110,"ELEMENT_SET_NO":999,"REV_AT_EPOCH":94763,"BSTAR":0.00026553828,"MEAN_MOTION_DOT":2.0e-6,"MEAN_MOTION_DDOT":0},{"OBJECT_NAME":"FENGYUN 1C DEB","OBJECT_ID":"1999-025RR","EPOCH":"2026-03-14T22:27:27.043488","MEAN_MOTION":14.2264472,"ECCENTRICITY":0.01993198,"INCLINATION":99.2936,"RA_OF_ASC_NODE":57.8581,"ARG_OF_PERICENTER":205.3298,"MEAN_ANOMALY":153.8003,"EPHEMERIS_TYPE":0,"CLASSIFICATION_TYPE":"U","NORAD_CAT_ID":30112,"ELEMENT_SET_NO":999,"REV_AT_EPOCH":98893,"BSTAR":0.0004174415,"MEAN_MOTION_DOT":1.092e-5,"MEAN_MOTION_DDOT":0},{"OBJECT_NAME":"FENGYUN 1C DEB","OBJECT_ID":"1999-025RS","EPOCH":"2026-03-14T13:46:44.030208","MEAN_MOTION":14.46739921,"ECCENTRICITY":0.00392686,"INCLINATION":99.0378,"RA_OF_ASC_NODE":296.7652,"ARG_OF_PERICENTER":87.306,"MEAN_ANOMALY":336.6029,"EPHEMERIS_TYPE":0,"CLASSIFICATION_TYPE":"U","NORAD_CAT_ID":30113,"ELEMENT_SET_NO":999,"REV_AT_EPOCH":99236,"BSTAR":0.0020373214,"MEAN_MOTION_DOT":7.398e-5,"MEAN_MOTION_DDOT":0},{"OBJECT_NAME":"FENGYUN 1C DEB","OBJECT_ID":"1999-025RT","EPOCH":"2026-03-14T22:12:25.257312","MEAN_MOTION":14.09739736,"ECCENTRICITY":0.00805209,"INCLINATION":98.7503,"RA_OF_ASC_NODE":78.7055,"ARG_OF_PERICENTER":218.6679,"MEAN_ANOMALY":204.1485,"EPHEMERIS_TYPE":0,"CLASSIFICATION_TYPE":"U","NORAD_CAT_ID":30114,"ELEMENT_SET_NO":999,"REV_AT_EPOCH":98453,"BSTAR":0.00017403375,"MEAN_MOTION_DOT":2.72e-6,"MEAN_MOTION_DDOT":0},{"OBJECT_NAME":"FENGYUN 1C DEB","OBJECT_ID":"1999-025RU","EPOCH":"2026-03-14T14:33:06.382368","MEAN_MOTION":14.20207108,"ECCENTRICITY":0.00684268,"INCLINATION":98.6131,"RA_OF_ASC_NODE":103.5077,"ARG_OF_PERICENTER":153.996,"MEAN_ANOMALY":323.2571,"EPHEMERIS_TYPE":0,"CLASSIFICATION_TYPE":"U","NORAD_CAT_ID":30115,"ELEMENT_SET_NO":999,"REV_AT_EPOCH":98632,"BSTAR":0.0010154321,"MEAN_MOTION_DOT":2.178e-5,"MEAN_MOTION_DDOT":0},{"OBJECT_NAME":"FENGYUN 1C DEB","OBJECT_ID":"1999-025RV","EPOCH":"2026-03-14T16:55:35.700384","MEAN_MOTION":14.30069604,"ECCENTRICITY":0.00215582,"INCLINATION":99.3871,"RA_OF_ASC_NODE":156.8961,"ARG_OF_PERICENTER":87.1455,"MEAN_ANOMALY":64.8537,"EPHEMERIS_TYPE":0,"CLASSIFICATION_TYPE":"U","NORAD_CAT_ID":30116,"ELEMENT_SET_NO":999,"REV_AT_EPOCH":98823,"BSTAR":0.0017901071,"MEAN_MOTION_DOT":4.588e-5,"MEAN_MOTION_DDOT":0},{"OBJECT_NAME":"FENGYUN 1C DEB","OBJECT_ID":"1999-025RW","EPOCH":"2026-03-14T23:04:19.278336","MEAN_MOTION":14.07251123,"ECCENTRICITY":0.01632206,"INCLINATION":98.8141,"RA_OF_ASC_NODE":65.1016,"ARG_OF_PERICENTER":310.211,"MEAN_ANOMALY":103.756,"EPHEMERIS_TYPE":0,"CLASSIFICATION_TYPE":"U","NORAD_CAT_ID":30117,"ELEMENT_SET_NO":999,"REV_AT_EPOCH":98286,"BSTAR":0.00026838024,"MEAN_MOTION_DOT":4.64e-6,"MEAN_MOTION_DDOT":0},{"OBJECT_NAME":"FENGYUN 1C DEB","OBJECT_ID":"1999-025RX","EPOCH":"2026-03-14T22:28:41.763936","MEAN_MOTION":14.05167883,"ECCENTRICITY":0.00847914,"INCLINATION":98.8064,"RA_OF_ASC_NODE":79.9877,"ARG_OF_PERICENTER":160.2926,"MEAN_ANOMALY":259.5095,"EPHEMERIS_TYPE":0,"CLASSIFICATION_TYPE":"U","NORAD_CAT_ID":30118,"ELEMENT_SET_NO":999,"REV_AT_EPOCH":98226,"BSTAR":0.00012680604,"MEAN_MOTION_DOT":1.69e-6,"MEAN_MOTION_DDOT":0},{"OBJECT_NAME":"FENGYUN 1C DEB","OBJECT_ID":"1999-025RY","EPOCH":"2026-03-14T22:42:57.519648","MEAN_MOTION":14.22917122,"ECCENTRICITY":0.01314349,"INCLINATION":97.9289,"RA_OF_ASC_NODE":63.6992,"ARG_OF_PERICENTER":20.5412,"MEAN_ANOMALY":33.0672,"EPHEMERIS_TYPE":0,"CLASSIFICATION_TYPE":"U","NORAD_CAT_ID":30119,"ELEMENT_SET_NO":999,"REV_AT_EPOCH":98491,"BSTAR":0.0020947446,"MEAN_MOTION_DOT":5.112e-5,"MEAN_MOTION_DDOT":0},{"OBJECT_NAME":"FENGYUN 1C DEB","OBJECT_ID":"1999-025RZ","EPOCH":"2026-03-14T19:43:02.840160","MEAN_MOTION":14.2845619,"ECCENTRICITY":0.0059789,"INCLINATION":98.8426,"RA_OF_ASC_NODE":161.9314,"ARG_OF_PERICENTER":303.7967,"MEAN_ANOMALY":181.8486,"EPHEMERIS_TYPE":0,"CLASSIFICATION_TYPE":"U","NORAD_CAT_ID":30120,"ELEMENT_SET_NO":999,"REV_AT_EPOCH":98685,"BSTAR":0.0015380929,"MEAN_MOTION_DOT":3.88e-5,"MEAN_MOTION_DDOT":0},{"OBJECT_NAME":"FENGYUN 1C DEB","OBJECT_ID":"1999-025SA","EPOCH":"2026-03-14T17:14:29.893056","MEAN_MOTION":14.41507883,"ECCENTRICITY":0.00293709,"INCLINATION":102.1569,"RA_OF_ASC_NODE":138.4648,"ARG_OF_PERICENTER":275.6202,"MEAN_ANOMALY":205.5318,"EPHEMERIS_TYPE":0,"CLASSIFICATION_TYPE":"U","NORAD_CAT_ID":30121,"ELEMENT_SET_NO":999,"REV_AT_EPOCH":98864,"BSTAR":0.0028437506,"MEAN_MOTION_DOT":9.223e-5,"MEAN_MOTION_DDOT":0},{"OBJECT_NAME":"FENGYUN 1C DEB","OBJECT_ID":"1999-025SC","EPOCH":"2026-03-14T18:03:36.381888","MEAN_MOTION":14.26894324,"ECCENTRICITY":0.02263014,"INCLINATION":96.9308,"RA_OF_ASC_NODE":0.1926,"ARG_OF_PERICENTER":163.9828,"MEAN_ANOMALY":196.8669,"EPHEMERIS_TYPE":0,"CLASSIFICATION_TYPE":"U","NORAD_CAT_ID":30123,"ELEMENT_SET_NO":999,"REV_AT_EPOCH":98559,"BSTAR":0.00065196173,"MEAN_MOTION_DOT":2.045e-5,"MEAN_MOTION_DDOT":0},{"OBJECT_NAME":"FENGYUN 1C DEB","OBJECT_ID":"1999-025SD","EPOCH":"2026-03-14T22:46:29.028576","MEAN_MOTION":14.14614489,"ECCENTRICITY":0.0142891,"INCLINATION":99.1191,"RA_OF_ASC_NODE":134.8411,"ARG_OF_PERICENTER":204.821,"MEAN_ANOMALY":329.4716,"EPHEMERIS_TYPE":0,"CLASSIFICATION_TYPE":"U","NORAD_CAT_ID":30124,"ELEMENT_SET_NO":999,"REV_AT_EPOCH":98218,"BSTAR":0.00089177501,"MEAN_MOTION_DOT":1.844e-5,"MEAN_MOTION_DDOT":0},{"OBJECT_NAME":"FENGYUN 1C DEB","OBJECT_ID":"1999-025SE","EPOCH":"2026-03-14T20:08:03.956352","MEAN_MOTION":14.23638276,"ECCENTRICITY":0.03403628,"INCLINATION":98.7183,"RA_OF_ASC_NODE":176.9915,"ARG_OF_PERICENTER":77.0237,"MEAN_ANOMALY":42.7581,"EPHEMERIS_TYPE":0,"CLASSIFICATION_TYPE":"U","NORAD_CAT_ID":30125,"ELEMENT_SET_NO":999,"REV_AT_EPOCH":98231,"BSTAR":0.00081603726,"MEAN_MOTION_DOT":3.346e-5,"MEAN_MOTION_DDOT":0},{"OBJECT_NAME":"FENGYUN 1C DEB","OBJECT_ID":"1999-025SG","EPOCH":"2026-03-14T13:34:03.705888","MEAN_MOTION":14.39677047,"ECCENTRICITY":0.00823375,"INCLINATION":98.209,"RA_OF_ASC_NODE":291.137,"ARG_OF_PERICENTER":163.0318,"MEAN_ANOMALY":197.3654,"EPHEMERIS_TYPE":0,"CLASSIFICATION_TYPE":"U","NORAD_CAT_ID":30127,"ELEMENT_SET_NO":999,"REV_AT_EPOCH":98556,"BSTAR":0.0029303892,"MEAN_MOTION_DOT":9.511e-5,"MEAN_MOTION_DDOT":0},{"OBJECT_NAME":"FENGYUN 1C DEB","OBJECT_ID":"1999-025SH","EPOCH":"2026-03-14T22:15:20.214720","MEAN_MOTION":14.48867154,"ECCENTRICITY":0.01014651,"INCLINATION":96.9885,"RA_OF_ASC_NODE":61.6599,"ARG_OF_PERICENTER":193.3623,"MEAN_ANOMALY":196.1105,"EPHEMERIS_TYPE":0,"CLASSIFICATION_TYPE":"U","NORAD_CAT_ID":30128,"ELEMENT_SET_NO":999,"REV_AT_EPOCH":98645,"BSTAR":0.0028505192,"MEAN_MOTION_DOT":0.00011487,"MEAN_MOTION_DDOT":0},{"OBJECT_NAME":"FENGYUN 1C DEB","OBJECT_ID":"1999-025SJ","EPOCH":"2026-03-14T17:44:51.065952","MEAN_MOTION":14.01798906,"ECCENTRICITY":0.01851274,"INCLINATION":98.0416,"RA_OF_ASC_NODE":9.7413,"ARG_OF_PERICENTER":190.0735,"MEAN_ANOMALY":241.3813,"EPHEMERIS_TYPE":0,"CLASSIFICATION_TYPE":"U","NORAD_CAT_ID":30129,"ELEMENT_SET_NO":999,"REV_AT_EPOCH":97767,"BSTAR":0.00021644627,"MEAN_MOTION_DOT":3.46e-6,"MEAN_MOTION_DDOT":0},{"OBJECT_NAME":"FENGYUN 1C DEB","OBJECT_ID":"1999-025SL","EPOCH":"2026-03-14T20:21:33.507936","MEAN_MOTION":14.22187824,"ECCENTRICITY":0.0080285,"INCLINATION":99.0685,"RA_OF_ASC_NODE":173.2577,"ARG_OF_PERICENTER":252.7165,"MEAN_ANOMALY":229.1515,"EPHEMERIS_TYPE":0,"CLASSIFICATION_TYPE":"U","NORAD_CAT_ID":30131,"ELEMENT_SET_NO":999,"REV_AT_EPOCH":97997,"BSTAR":0.002372525,"MEAN_MOTION_DOT":5.393e-5,"MEAN_MOTION_DDOT":0},{"OBJECT_NAME":"FENGYUN 1C DEB","OBJECT_ID":"1999-025SM","EPOCH":"2026-03-14T21:02:15.416448","MEAN_MOTION":13.94974253,"ECCENTRICITY":0.01047043,"INCLINATION":99.5903,"RA_OF_ASC_NODE":35.9871,"ARG_OF_PERICENTER":161.3514,"MEAN_ANOMALY":225.1629,"EPHEMERIS_TYPE":0,"CLASSIFICATION_TYPE":"U","NORAD_CAT_ID":30132,"ELEMENT_SET_NO":999,"REV_AT_EPOCH":97374,"BSTAR":0.00032816399,"MEAN_MOTION_DOT":4.15e-6,"MEAN_MOTION_DDOT":0},{"OBJECT_NAME":"FENGYUN 1C DEB","OBJECT_ID":"1999-025SN","EPOCH":"2026-03-14T22:06:29.429280","MEAN_MOTION":14.07191517,"ECCENTRICITY":0.00827199,"INCLINATION":98.3311,"RA_OF_ASC_NODE":238.3794,"ARG_OF_PERICENTER":358.3612,"MEAN_ANOMALY":154.5842,"EPHEMERIS_TYPE":0,"CLASSIFICATION_TYPE":"U","NORAD_CAT_ID":30133,"ELEMENT_SET_NO":999,"REV_AT_EPOCH":97674,"BSTAR":0.0013094022,"MEAN_MOTION_DOT":2.224e-5,"MEAN_MOTION_DDOT":0},{"OBJECT_NAME":"FENGYUN 1C DEB","OBJECT_ID":"1999-025SP","EPOCH":"2026-03-14T19:07:34.288032","MEAN_MOTION":14.13539026,"ECCENTRICITY":0.00176455,"INCLINATION":98.6881,"RA_OF_ASC_NODE":95.2098,"ARG_OF_PERICENTER":283.8127,"MEAN_ANOMALY":254.4802,"EPHEMERIS_TYPE":0,"CLASSIFICATION_TYPE":"U","NORAD_CAT_ID":30134,"ELEMENT_SET_NO":999,"REV_AT_EPOCH":98546,"BSTAR":0.00052250358,"MEAN_MOTION_DOT":9.43e-6,"MEAN_MOTION_DDOT":0}]
